{
    "links": {
        "self": "http://www.neowsapp.com/rest/v1/neo/54054519?api_key=iIulBulltgU6a56xZRHN4H3l9WmuAYTsLGpBGhQ2"
    },
    "id": "54054519",
    "neo_reference_id": "54054519",
    "name": "(2020 SH1)",
    "designation": "2020 SH1",
    "nasa_jpl_url": "http://ssd.jpl.nasa.gov/sbdb.cgi?sstr=54054519",
    "absolute_magnitude_h": 21.603,
    "estimated_diameter": {
        "kilometers": {
            "estimated_diameter_min": 0.1270442391,
            "estimated_diameter_max": 0.2840795549
        },
        "meters": {
            "estimated_diameter_min": 127.0442391372,
            "estimated_diameter_max": 284.0795548605
        },
        "miles": {
            "estimated_diameter_min": 0.0789416059,
            "estimated_diameter_max": 0.1765187971
        },
        "feet": {
            "estimated_diameter_min": 416.8118215308,
            "estimated_diameter_max": 932.0195667684
        }
    },
    "is_potentially_hazardous_asteroid": false,
    "close_approach_data": [
        {
            "close_approach_date": "2020-10-06",
            "close_approach_date_full": "2020-Oct-06 03:29",
            "epoch_date_close_approach": 1601954940000,
            "relative_velocity": {
                "kilometers_per_second": "9.6099843757",
                "kilometers_per_hour": "34595.9437525733",
                "miles_per_hour": "21496.5740500364"
            },
            "miss_distance": {
                "astronomical": "0.4568370966",
                "lunar": "177.7096305774",
                "kilometers": "68341856.588344242",
                "miles": "42465660.5251528596"
            },
            "orbiting_body": "Earth"
        },
        {
            "close_approach_date": "2020-10-16",
            "close_approach_date_full": "2020-Oct-16 01:56",
            "epoch_date_close_approach": 1602813360000,
            "relative_velocity": {
                "kilometers_per_second": "8.3150759419",
                "kilometers_per_hour": "29934.2733908337",
                "miles_per_hour": "18599.9933744322"
            },
            "miss_distance": {
                "astronomical": "0.0466064607",
                "lunar": "18.1299132123",
                "kilometers": "6972227.248958709",
                "miles": "4332341.1191758242"
            },
            "orbiting_body": "Mars"
        }
    ],
    "orbital_data": {
        "orbit_id": "1",
        "orbit_determination_date": "2020-09-24 03:28:46",
        "first_observation_date": "2020-09-17",
        "last_observation_date": "2020-09-19",
        "data_arc_in_days": 2,
        "observations_used": 11,
        "orbit_uncertainty": "9",
        "minimum_orbit_intersection": ".345758",
        "jupiter_tisserand_invariant": "4.618",
        "epoch_osculation": "2459110.5",
        "eccentricity": ".1141211811828785",
        "semi_major_axis": "1.43761484628242",
        "inclination": "17.02775667684932",
        "ascending_node_longitude": "200.0456199933925",
        "orbital_period": "629.5964209127349",
        "perihelion_distance": "1.273552541938628",
        "perihelion_argument": "76.58379201614372",
        "aphelion_distance": "1.601677150626212",
        "perihelion_time": "2458976.076466731384",
        "mean_anomaly": "76.86268595133771",
        "mean_motion": ".571794864205395",
        "equinox": "J2000",
        "orbit_class": {
            "orbit_class_type": "AMO",
            "orbit_class_description": "Near-Earth asteroid orbits similar to that of 1221 Amor",
            "orbit_class_range": "1.017 AU < q (perihelion) < 1.3 AU"
        }
    },
    "is_sentry_object": false
}